[{"OBJECT_NAME":"STARLINK-31437","OBJECT_ID":"2024-112V","EPOCH":"2026-03-09T10:25:22.270656","MEAN_MOTION":15.30181601,"ECCENTRICITY":0.00012336,"INCLINATION":53.1602,"RA_OF_ASC_NODE":79.453,"ARG_OF_PERICENTER":73.8346,"MEAN_ANOMALY":286.279,"EPHEMERIS_TYPE":0,"CLASSIFICATION_TYPE":"U","NORAD_CAT_ID":60057,"ELEMENT_SET_NO":999,"REV_AT_EPOCH":9855,"BSTAR":-5.5929054e-5,"MEAN_MOTION_DOT":-2.014e-5,"MEAN_MOTION_DDOT":0},{"OBJECT_NAME":"OBJECT BE","OBJECT_ID":"2025-313BE","EPOCH":"2026-03-09T16:43:59.380320","MEAN_MOTION":15.29801687,"ECCENTRICITY":0.00072083,"INCLINATION":97.3989,"RA_OF_ASC_NODE":145.3568,"ARG_OF_PERICENTER":335.3714,"MEAN_ANOMALY":24.7181,"EPHEMERIS_TYPE":0,"CLASSIFICATION_TYPE":"U","NORAD_CAT_ID":67482,"ELEMENT_SET_NO":999,"REV_AT_EPOCH":797,"BSTAR":0.0026504328,"MEAN_MOTION_DOT":0.00077178,"MEAN_MOTION_DDOT":0}]
